start=new Date('2023-06-26T00:00:00.000Z').valueOf();
sats=[{"APOAPSIS":"560.081","OBJECT_TYPE":"PAYLOAD","TLE_LINE2":"2 55478  43.0027 282.1395 0001464 284.5080  75.5599 15.02541100 22271","MEAN_ELEMENT_THEORY":"SGP4","EPOCH":"2023-06-25T15:59:37.658976","EPHEMERIS_TYPE":"0","MEAN_MOTION":"15.02541100","ECCENTRICITY":"0.00014640","SITE":"AFETR","COUNTRY_CODE":"US","PERIOD":"95.838","MEAN_MOTION_DOT":"0.00001280","REF_FRAME":"TEME","CENTER_NAME":"EARTH","CLASSIFICATION_TYPE":"U","RCS_SIZE":"LARGE","REV_AT_EPOCH":"2227","OBJECT_NAME":"STARLINK-5691","BSTAR":"0.00010980000000","INCLINATION":"43.0027","LAUNCH_DATE":"2023-02-02","ARG_OF_PERICENTER":"284.5080","PERIAPSIS":"558.050","DECAY_DATE":null,"MEAN_ANOMALY":"75.5599","MEAN_MOTION_DDOT":"0.0000000000000","ELEMENT_SET_NO":"999","RA_OF_ASC_NODE":"282.1395","NORAD_CAT_ID":"55478","GP_ID":"234549989","TLE_LINE1":"1 55478U 23015AF  23176.66640809  .00001280  00000-0  10980-3 0  9990","FILE":"3942652","OBJECT_ID":"2023-015AF","TIME_SYSTEM":"UTC","SEMIMAJOR_AXIS":"6937.201"},{"MEAN_ANOMALY":"78.3981","LAUNCH_DATE":"2023-02-02","ARG_OF_PERICENTER":"281.6682","PERIAPSIS":"557.954","DECAY_DATE":null,"RA_OF_ASC_NODE":"282.1626","MEAN_MOTION_DDOT":"0.0000000000000","ELEMENT_SET_NO":"999","TLE_LINE1":"1 55479U 23015AG  23176.66973543  .00001069  00000-0  94203-4 0  9991","NORAD_CAT_ID":"55479","GP_ID":"234549991","TIME_SYSTEM":"UTC","SEMIMAJOR_AXIS":"6937.194","FILE":"3942652","OBJECT_ID":"2023-015AG","MEAN_ELEMENT_THEORY":"SGP4","EPOCH":"2023-06-25T16:04:25.141152","APOAPSIS":"560.164","TLE_LINE2":"2 55479  43.0029 282.1626 0001593 281.6682  78.3981 15.02543426 22279","OBJECT_TYPE":"PAYLOAD","PERIOD":"95.837","REF_FRAME":"TEME","MEAN_MOTION_DOT":"0.00001069","CENTER_NAME":"EARTH","EPHEMERIS_TYPE":"0","MEAN_MOTION":"15.02543426","ECCENTRICITY":"0.00015930","SITE":"AFETR","COUNTRY_CODE":"US","RCS_SIZE":"LARGE","CLASSIFICATION_TYPE":"U","INCLINATION":"43.0029","BSTAR":"0.00009420300000","REV_AT_EPOCH":"2227","OBJECT_NAME":"STARLINK-5688"},{"FILE":"3941827","OBJECT_ID":"2023-015AH","TIME_SYSTEM":"UTC","SEMIMAJOR_AXIS":"6939.707","NORAD_CAT_ID":"55480","GP_ID":"234529944","TLE_LINE1":"1 55480U 23015AH  23175.68605270  .00001527  00000-0  13075-3 0  9999","MEAN_MOTION_DDOT":"0.0000000000000","ELEMENT_SET_NO":"999","RA_OF_ASC_NODE":"310.2164","LAUNCH_DATE":"2023-02-02","ARG_OF_PERICENTER":"278.5691","PERIAPSIS":"560.337","DECAY_DATE":null,"MEAN_ANOMALY":"81.4950","REV_AT_EPOCH":"2168","OBJECT_NAME":"STARLINK-5690","INCLINATION":"43.0031","BSTAR":"0.00013075000000","CLASSIFICATION_TYPE":"U","RCS_SIZE":"LARGE","EPHEMERIS_TYPE":"0","MEAN_MOTION":"15.01727255","ECCENTRICITY":"0.00017800","SITE":"AFETR","COUNTRY_CODE":"US","PERIOD":"95.890","REF_FRAME":"TEME","MEAN_MOTION_DOT":"0.00001527","CENTER_NAME":"EARTH","APOAPSIS":"562.807","TLE_LINE2":"2 55480  43.0031 310.2164 0001780 278.5691  81.4950 15.01727255 21685","OBJECT_TYPE":"PAYLOAD","MEAN_ELEMENT_THEORY":"SGP4","EPOCH":"2023-06-24T16:27:54.953280"},{"CLASSIFICATION_TYPE":"U","RCS_SIZE":"LARGE","REV_AT_EPOCH":"2198","OBJECT_NAME":"STARLINK-5694","INCLINATION":"43.0030","BSTAR":"0.00011782000000","TLE_LINE2":"2 55481  43.0030 307.5813 0001528 265.5450  94.5217 15.02542334 21982","OBJECT_TYPE":"PAYLOAD","APOAPSIS":"560.122","MEAN_ELEMENT_THEORY":"SGP4","EPOCH":"2023-06-25T16:57:51.416640","SITE":"AFETR","ECCENTRICITY":"0.00015280","COUNTRY_CODE":"US","EPHEMERIS_TYPE":"0","MEAN_MOTION":"15.02542334","CENTER_NAME":"EARTH","PERIOD":"95.838","REF_FRAME":"TEME","MEAN_MOTION_DOT":"0.00001388","NORAD_CAT_ID":"55481","GP_ID":"234550014","TLE_LINE1":"1 55481U 23015AJ  23176.70684510  .00001388  00000-0  11782-3 0  9996","OBJECT_ID":"2023-015AJ","FILE":"3942649","SEMIMAJOR_AXIS":"6937.197","TIME_SYSTEM":"UTC","ARG_OF_PERICENTER":"265.5450","DECAY_DATE":null,"PERIAPSIS":"558.002","LAUNCH_DATE":"2023-02-02","MEAN_ANOMALY":"94.5217","ELEMENT_SET_NO":"999","MEAN_MOTION_DDOT":"0.0000000000000","RA_OF_ASC_NODE":"307.5813"},{"LAUNCH_DATE":"2023-02-02","ARG_OF_PERICENTER":"280.6524","DECAY_DATE":null,"PERIAPSIS":"557.841","MEAN_ANOMALY":"79.4121","MEAN_MOTION_DDOT":"0.0000000000000","ELEMENT_SET_NO":"999","RA_OF_ASC_NODE":"308.8515","GP_ID":"234549521","NORAD_CAT_ID":"55482","TLE_LINE1":"1 55482U 23015AK  23176.41762922  .00003931  00000-0  30585-3 0  9997","FILE":"3942649","OBJECT_ID":"2023-015AK","TIME_SYSTEM":"UTC","SEMIMAJOR_AXIS":"6937.192","APOAPSIS":"560.273","OBJECT_TYPE":"PAYLOAD","TLE_LINE2":"2 55482  43.0043 308.8515 0001753 280.6524  79.4121 15.02543897 21767","MEAN_ELEMENT_THEORY":"SGP4","EPOCH":"2023-06-25T10:01:23.164608","EPHEMERIS_TYPE":"0","MEAN_MOTION":"15.02543897","SITE":"AFETR","ECCENTRICITY":"0.00017530","COUNTRY_CODE":"US","PERIOD":"95.837","MEAN_MOTION_DOT":"0.00003931","REF_FRAME":"TEME","CENTER_NAME":"EARTH","CLASSIFICATION_TYPE":"U","RCS_SIZE":"LARGE","REV_AT_EPOCH":"2176","OBJECT_NAME":"STARLINK-5693","INCLINATION":"43.0043","BSTAR":"0.00030585000000"},{"EPOCH":"2023-06-25T15:06:08.731872","MEAN_ELEMENT_THEORY":"SGP4","APOAPSIS":"560.340","OBJECT_TYPE":"PAYLOAD","TLE_LINE2":"2 55483  43.0036 307.8599 0001837 264.3863  95.6770 15.02541138 21978","REF_FRAME":"TEME","MEAN_MOTION_DOT":"0.00002347","PERIOD":"95.838","CENTER_NAME":"EARTH","MEAN_MOTION":"15.02541138","EPHEMERIS_TYPE":"0","COUNTRY_CODE":"US","SITE":"AFETR","ECCENTRICITY":"0.00018370","RCS_SIZE":"LARGE","CLASSIFICATION_TYPE":"U","INCLINATION":"43.0036","BSTAR":"0.00018875000000","OBJECT_NAME":"STARLINK-5692","REV_AT_EPOCH":"2197","MEAN_ANOMALY":"95.6770","LAUNCH_DATE":"2023-02-02","DECAY_DATE":null,"PERIAPSIS":"557.791","ARG_OF_PERICENTER":"264.3863","RA_OF_ASC_NODE":"307.8599","MEAN_MOTION_DDOT":"0.0000000000000","ELEMENT_SET_NO":"999","TLE_LINE1":"1 55483U 23015AL  23176.62926773  .00002347  00000-0  18875-3 0  9995","NORAD_CAT_ID":"55483","GP_ID":"234549522","TIME_SYSTEM":"UTC","SEMIMAJOR_AXIS":"6937.201","FILE":"3942649","OBJECT_ID":"2023-015AL"},{"RCS_SIZE":"LARGE","CLASSIFICATION_TYPE":"U","INCLINATION":"43.0039","BSTAR":"0.00014701000000","REV_AT_EPOCH":"2198","OBJECT_NAME":"STARLINK-5696","MEAN_ELEMENT_THEORY":"SGP4","EPOCH":"2023-06-25T16:29:05.316576","OBJECT_TYPE":"PAYLOAD","TLE_LINE2":"2 55484  43.0039 307.4318 0001646 275.4266  84.6389 15.02540903 21989","APOAPSIS":"560.208","CENTER_NAME":"EARTH","PERIOD":"95.838","MEAN_MOTION_DOT":"0.00001783","REF_FRAME":"TEME","SITE":"AFETR","ECCENTRICITY":"0.00016460","COUNTRY_CODE":"US","EPHEMERIS_TYPE":"0","MEAN_MOTION":"15.02540903","TLE_LINE1":"1 55484U 23015AM  23176.68686709  .00001783  00000-0  14701-3 0  9991","GP_ID":"234550032","NORAD_CAT_ID":"55484","SEMIMAJOR_AXIS":"6937.201","TIME_SYSTEM":"UTC","OBJECT_ID":"2023-015AM","FILE":"3942650","MEAN_ANOMALY":"84.6389","ARG_OF_PERICENTER":"275.4266","PERIAPSIS":"557.925","DECAY_DATE":null,"LAUNCH_DATE":"2023-02-02","RA_OF_ASC_NODE":"307.4318","ELEMENT_SET_NO":"999","MEAN_MOTION_DDOT":"0.0000000000000"},{"ELEMENT_SET_NO":"999","MEAN_MOTION_DDOT":"0.0000000000000","RA_OF_ASC_NODE":"310.7911","PERIAPSIS":"557.880","DECAY_DATE":null,"ARG_OF_PERICENTER":"273.4081","LAUNCH_DATE":"2023-02-02","MEAN_ANOMALY":"86.6565","OBJECT_ID":"2023-015AN","FILE":"3942138","SEMIMAJOR_AXIS":"6937.206","TIME_SYSTEM":"UTC","GP_ID":"234535916","NORAD_CAT_ID":"55485","TLE_LINE1":"1 55485U 23015AN  23176.10299737  .00001665  00000-0  13828-3 0  9998","COUNTRY_CODE":"US","SITE":"AFETR","ECCENTRICITY":"0.00017170","MEAN_MOTION":"15.02539440","EPHEMERIS_TYPE":"0","CENTER_NAME":"EARTH","MEAN_MOTION_DOT":"0.00001665","REF_FRAME":"TEME","PERIOD":"95.838","TLE_LINE2":"2 55485  43.0047 310.7911 0001717 273.4081  86.6565 15.02539440 21710","OBJECT_TYPE":"PAYLOAD","APOAPSIS":"560.262","EPOCH":"2023-06-25T02:28:18.972768","MEAN_ELEMENT_THEORY":"SGP4","OBJECT_NAME":"STARLINK-5695","REV_AT_EPOCH":"2171","BSTAR":"0.00013828000000","INCLINATION":"43.0047","CLASSIFICATION_TYPE":"U","RCS_SIZE":"LARGE"},{"TLE_LINE1":"1 55486U 23015AP  23176.39103296  .00000432  00000-0  48000-4 0  9996","NORAD_CAT_ID":"55486","GP_ID":"234542731","SEMIMAJOR_AXIS":"6939.720","TIME_SYSTEM":"UTC","OBJECT_ID":"2023-015AP","FILE":"3942381","MEAN_ANOMALY":"87.3033","DECAY_DATE":null,"PERIAPSIS":"560.433","ARG_OF_PERICENTER":"272.7619","LAUNCH_DATE":"2023-02-02","RA_OF_ASC_NODE":"307.7712","ELEMENT_SET_NO":"999","MEAN_MOTION_DDOT":"0.0000000000000","RCS_SIZE":"LARGE","CLASSIFICATION_TYPE":"U","BSTAR":"0.00004800000000","INCLINATION":"43.0042","OBJECT_NAME":"STARLINK-5704","REV_AT_EPOCH":"2195","EPOCH":"2023-06-25T09:23:05.247744","MEAN_ELEMENT_THEORY":"SGP4","TLE_LINE2":"2 55486  43.0042 307.7712 0001660 272.7619  87.3033 15.01722992 21956","OBJECT_TYPE":"PAYLOAD","APOAPSIS":"562.737","CENTER_NAME":"EARTH","MEAN_MOTION_DOT":"0.00000432","REF_FRAME":"TEME","PERIOD":"95.890","COUNTRY_CODE":"US","ECCENTRICITY":"0.00016600","SITE":"AFETR","MEAN_MOTION":"15.01722992","EPHEMERIS_TYPE":"0"},{"APOAPSIS":"560.209","OBJECT_TYPE":"PAYLOAD","TLE_LINE2":"2 55487  43.0038 307.5574 0001656 273.3106  86.7547 15.02543046 21987","EPOCH":"2023-06-25T16:53:03.626016","MEAN_ELEMENT_THEORY":"SGP4","MEAN_MOTION":"15.02543046","EPHEMERIS_TYPE":"0","COUNTRY_CODE":"US","ECCENTRICITY":"0.00016560","SITE":"AFETR","REF_FRAME":"TEME","MEAN_MOTION_DOT":"0.00000061","PERIOD":"95.838","CENTER_NAME":"EARTH","CLASSIFICATION_TYPE":"U","RCS_SIZE":"LARGE","OBJECT_NAME":"STARLINK-5701","REV_AT_EPOCH":"2198","INCLINATION":"43.0038","BSTAR":"0.00001960200000","LAUNCH_DATE":"2023-02-02","PERIAPSIS":"557.911","DECAY_DATE":null,"ARG_OF_PERICENTER":"273.3106","MEAN_ANOMALY":"86.7547","MEAN_MOTION_DDOT":"0.0000000000000","ELEMENT_SET_NO":"999","RA_OF_ASC_NODE":"307.5574","NORAD_CAT_ID":"55487","GP_ID":"234549664","TLE_LINE1":"1 55487U 23015AQ  23176.70351419  .00000061  00000-0  19602-4 0  9998","FILE":"3942661","OBJECT_ID":"2023-015AQ","TIME_SYSTEM":"UTC","SEMIMAJOR_AXIS":"6937.195"}];
